{"type": "FeatureCollection", "features": [ {"type": "Feature", "properties": {"norad_id": 66959, "name": "STARLINK-35887", "group": "last-30-days", "lat": 38.984283323173074, "lon": -128.4867222912221, "alt_km": 333.86679435334645, "timestamp": "2025-12-21T18:54:57.225433+00:00", "meta": {"OBJECT_NAME": "STARLINK-35887", "OBJECT_ID": "2025-288A", "EPOCH": "2025-12-21T14:00:01.999872", "MEAN_MOTION": 15.77608953, "ECCENTRICITY": 0.00017722, "INCLINATION": 43.0007, "RA_OF_ASC_NODE": 113.0467, "ARG_OF_PERICENTER": 275.4576, "MEAN_ANOMALY": 112.8029, "EPHEMERIS_TYPE": 0, "CLASSIFICATION_TYPE": "U", "NORAD_CAT_ID": 66959, "ELEMENT_SET_NO": 999, "REV_AT_EPOCH": 325, "BSTAR": -0.0086999351, "MEAN_MOTION_DOT": -0.01337825, "MEAN_MOTION_DDOT": 0}, "tle": {"line1": "1 66959U 25288A   25355.58335648 -.01337825  00000+0 -86999-2 0  9995", "line2": "2 66959  43.0007 113.0467 0001772 275.4576 112.8029 15.77608953  3250"}}, "geometry": {"type": "Point", "coordinates": [-128.4867222912221, 38.984283323173074]}}, {"type": "Feature", "properties": {"norad_id": 66960, "name": "STARLINK-35879", "group": "last-30-days", "lat": 38.29723493690325, "lon": -126.13762597952505, "alt_km": 333.9067262703147, "timestamp": "2025-12-21T18:54:57.225443+00:00", "meta": {"OBJECT_NAME": "STARLINK-35879", "OBJECT_ID": "2025-288B", "EPOCH": "2025-12-21T14:00:01.999872", "MEAN_MOTION": 15.77603884, "ECCENTRICITY": 0.0001591, "INCLINATION": 43.0007, "RA_OF_ASC_NODE": 113.0416, "ARG_OF_PERICENTER": 281.9231, "MEAN_ANOMALY": 108.3009, "EPHEMERIS_TYPE": 0, "CLASSIFICATION_TYPE": "U", "NORAD_CAT_ID": 66960, "ELEMENT_SET_NO": 999, "REV_AT_EPOCH": 325, "BSTAR": -0.0087666222, "MEAN_MOTION_DOT": -0.01346602, "MEAN_MOTION_DDOT": 0}, "tle": {"line1": "1 66960U 25288B   25355.58335648 -.01346602  00000+0 -87666-2 0  9992", "line2": "2 66960  43.0007 113.0416 0001591 281.9231 108.3009 15.77603884  3251"}}, "geometry": {"type": "Point", "coordinates": [-126.13762597952505, 38.29723493690325]}}, {"type": "Feature", "properties": {"norad_id": 66961, "name": "STARLINK-35761", "group": "last-30-days", "lat": 37.55076124163028, "lon": -123.7879015000463, "alt_km": 334.2193551792561, "timestamp": "2025-12-21T18:54:57.225452+00:00", "meta": {"OBJECT_NAME": "STARLINK-35761", "OBJECT_ID": "2025-288C", "EPOCH": "2025-12-21T14:00:01.999872", "MEAN_MOTION": 15.77593446, "ECCENTRICITY": 0.00018666, "INCLINATION": 43.0028, "RA_OF_ASC_NODE": 113.0364, "ARG_OF_PERICENTER": 275.6621, "MEAN_ANOMALY": 116.5774, "EPHEMERIS_TYPE": 0, "CLASSIFICATION_TYPE": "U", "NORAD_CAT_ID": 66961, "ELEMENT_SET_NO": 999, "REV_AT_EPOCH": 325, "BSTAR": -0.0089446077, "MEAN_MOTION_DOT": -0.01370547, "MEAN_MOTION_DDOT": 0}, "tle": {"line1": "1 66961U 25288C   25355.58335648 -.01370547  00000+0 -89446-2 0  9996", "line2": "2 66961  43.0028 113.0364 0001866 275.6621 116.5774 15.77593446  3257"}}, "geometry": {"type": "Point", "coordinates": [-123.7879015000463, 37.55076124163028]}}, {"type": "Feature", "properties": {"norad_id": 66962, "name": "STARLINK-35874", "group": "last-30-days", "lat": 36.682475168518536, "lon": -121.28090256373923, "alt_km": 334.619760647196, "timestamp": "2025-12-21T18:54:57.225462+00:00", "meta": {"OBJECT_NAME": "STARLINK-35874", "OBJECT_ID": "2025-288D", "EPOCH": "2025-12-21T14:00:01.999872", "MEAN_MOTION": 15.77511882, "ECCENTRICITY": 0.00018813, "INCLINATION": 43.0028, "RA_OF_ASC_NODE": 113.0306, "ARG_OF_PERICENTER": 274.7535, "MEAN_ANOMALY": 119.7345, "EPHEMERIS_TYPE": 0, "CLASSIFICATION_TYPE": "U", "NORAD_CAT_ID": 66962, "ELEMENT_SET_NO": 999, "REV_AT_EPOCH": 325, "BSTAR": -0.0092214005, "MEAN_MOTION_DOT": -0.01403604, "MEAN_MOTION_DDOT": 0}, "tle": {"line1": "1 66962U 25288D   25355.58335648 -.01403604  00000+0 -92214-2 0  9995", "line2": "2 66962  43.0028 113.0306 0001881 274.7535 119.7345 15.77511882  3258"}}, "geometry": {"type": "Point", "coordinates": [-121.28090256373923, 36.682475168518536]}}, {"type": "Feature", "properties": {"norad_id": 66963, "name": "STARLINK-36133", "group": "last-30-days", "lat": 35.837515171079545, "lon": -119.02389329795187, "alt_km": 334.75856125932205, "timestamp": "2025-12-21T18:54:57.225474+00:00", "meta": {"OBJECT_NAME": "STARLINK-36133", "OBJECT_ID": "2025-288E", "EPOCH": "2025-12-21T14:00:01.999872", "MEAN_MOTION": 15.77482102, "ECCENTRICITY": 0.00018067, "INCLINATION": 43.0028, "RA_OF_ASC_NODE": 113.0256, "ARG_OF_PERICENTER": 271.8995, "MEAN_ANOMALY": 124.6214, "EPHEMERIS_TYPE": 0, "CLASSIFICATION_TYPE": "U", "NORAD_CAT_ID": 66963, "ELEMENT_SET_NO": 999, "REV_AT_EPOCH": 325, "BSTAR": -0.0093104385, "MEAN_MOTION_DOT": -0.01413886, "MEAN_MOTION_DDOT": 0}, "tle": {"line1": "1 66963U 25288E   25355.58335648 -.01413886  00000+0 -93104-2 0  9998", "line2": "2 66963  43.0028 113.0256 0001806 271.8995 124.6214 15.77482102  3250"}}, "geometry": {"type": "Point", "coordinates": [-119.02389329795187, 35.837515171079545]}}, {"type": "Feature", "properties": {"norad_id": 66964, "name": "STARLINK-36104", "group": "last-30-days", "lat": 34.94276645941925, "lon": -116.79602595637307, "alt_km": 335.1493604327434, "timestamp": "2025-12-21T18:54:57.225484+00:00", "meta": {"OBJECT_NAME": "STARLINK-36104", "OBJECT_ID": "2025-288F", "EPOCH": "2025-12-21T14:00:01.999872", "MEAN_MOTION": 15.77445907, "ECCENTRICITY": 0.00018782, "INCLINATION": 43.0028, "RA_OF_ASC_NODE": 113.0202, "ARG_OF_PERICENTER": 281.927, "MEAN_ANOMALY": 116.6466, "EPHEMERIS_TYPE": 0, "CLASSIFICATION_TYPE": "U", "NORAD_CAT_ID": 66964, "ELEMENT_SET_NO": 999, "REV_AT_EPOCH": 325, "BSTAR": -0.0094333196, "MEAN_MOTION_DOT": -0.01428386, "MEAN_MOTION_DDOT": 0}, "tle": {"line1": "1 66964U 25288F   25355.58335648 -.01428386  00000+0 -94333-2 0  9995", "line2": "2 66964  43.0028 113.0202 0001878 281.9270 116.6466 15.77445907  3251"}}, "geometry": {"type": "Point", "coordinates": [-116.79602595637307, 34.94276645941925]}}, {"type": "Feature", "properties": {"norad_id": 66965, "name": "STARLINK-36067", "group": "last-30-days", "lat": 34.00888316728263, "lon": -114.62328001545536, "alt_km": 335.1497205065916, "timestamp": "2025-12-21T18:54:57.225493+00:00", "meta": {"OBJECT_NAME": "STARLINK-36067", "OBJECT_ID": "2025-288G", "EPOCH": "2025-12-21T14:00:01.999872", "MEAN_MOTION": 15.77404933, "ECCENTRICITY": 0.00014942, "INCLINATION": 43.0006, "RA_OF_ASC_NODE": 113.0155, "ARG_OF_PERICENTER": 278.0056, "MEAN_ANOMALY": 122.6226, "EPHEMERIS_TYPE": 0, "CLASSIFICATION_TYPE": "U", "NORAD_CAT_ID": 66965, "ELEMENT_SET_NO": 999, "REV_AT_EPOCH": 325, "BSTAR": -0.0095790053, "MEAN_MOTION_DOT": -0.01445266, "MEAN_MOTION_DDOT": 0}, "tle": {"line1": "1 66965U 25288G   25355.58335648 -.01445266  00000+0 -95790-2 0  9990", "line2": "2 66965  43.0006 113.0155 0001494 278.0056 122.6226 15.77404933  3253"}}, "geometry": {"type": "Point", "coordinates": [-114.62328001545536, 34.00888316728263]}}, {"type": "Feature", "properties": {"norad_id": 66966, "name": "STARLINK-36139", "group": "last-30-days", "lat": 32.991264271329534, "lon": -112.39688266544944, "alt_km": 335.6322142851268, "timestamp": "2025-12-21T18:54:57.225504+00:00", "meta": {"OBJECT_NAME": "STARLINK-36139", "OBJECT_ID": "2025-288H", "EPOCH": "2025-12-21T14:00:01.999872", "MEAN_MOTION": 15.77312972, "ECCENTRICITY": 0.00016527, "INCLINATION": 43.0006, "RA_OF_ASC_NODE": 113.0097, "ARG_OF_PERICENTER": 274.6746, "MEAN_ANOMALY": 128.1449, "EPHEMERIS_TYPE": 0, "CLASSIFICATION_TYPE": "U", "NORAD_CAT_ID": 66966, "ELEMENT_SET_NO": 999, "REV_AT_EPOCH": 325, "BSTAR": -0.0097007809, "MEAN_MOTION_DOT": -0.01456236, "MEAN_MOTION_DDOT": 0}, "tle": {"line1": "1 66966U 25288H   25355.58335648 -.01456236  00000+0 -97008-2 0  9994", "line2": "2 66966  43.0006 113.0097 0001652 274.6746 128.1449 15.77312972  3252"}}, "geometry": {"type": "Point", "coordinates": [-112.39688266544944, 32.991264271329534]}}, {"type": "Feature", "properties": {"norad_id": 66967, "name": "STARLINK-36136", "group": "last-30-days", "lat": 31.992508723376993, "lon": -110.33719908531434, "alt_km": 335.82781425209305, "timestamp": "2025-12-21T18:54:57.225514+00:00", "meta": {"OBJECT_NAME": "STARLINK-36136", "OBJECT_ID": "2025-288J", "EPOCH": "2025-12-21T14:00:01.999872", "MEAN_MOTION": 15.7727321, "ECCENTRICITY": 0.00015534, "INCLINATION": 43.0008, "RA_OF_ASC_NODE": 113.0045, "ARG_OF_PERICENTER": 273.6988, "MEAN_ANOMALY": 131.1571, "EPHEMERIS_TYPE": 0, "CLASSIFICATION_TYPE": "U", "NORAD_CAT_ID": 66967, "ELEMENT_SET_NO": 999, "REV_AT_EPOCH": 325, "BSTAR": -0.0097765689, "MEAN_MOTION_DOT": -0.01463884, "MEAN_MOTION_DDOT": 0}, "tle": {"line1": "1 66967U 25288J   25355.58335648 -.01463884  00000+0 -97766-2 0  9993", "line2": "2 66967  43.0008 113.0045 0001553 273.6988 131.1571 15.77273210  3256"}}, "geometry": {"type": "Point", "coordinates": [-110.33719908531434, 31.992508723376993]}}, {"type": "Feature", "properties": {"norad_id": 66968, "name": "STARLINK-36152", "group": "last-30-days", "lat": 30.89831516911362, "lon": -108.20452095243924, "alt_km": 336.3596897410871, "timestamp": "2025-12-21T18:54:57.225524+00:00", "meta": {"OBJECT_NAME": "STARLINK-36152", "OBJECT_ID": "2025-288K", "EPOCH": "2025-12-21T14:00:01.999872", "MEAN_MOTION": 15.77155765, "ECCENTRICITY": 0.00014968, "INCLINATION": 43.0006, "RA_OF_ASC_NODE": 112.9986, "ARG_OF_PERICENTER": 282.2203, "MEAN_ANOMALY": 124.843, "EPHEMERIS_TYPE": 0, "CLASSIFICATION_TYPE": "U", "NORAD_CAT_ID": 66968, "ELEMENT_SET_NO": 999, "REV_AT_EPOCH": 325, "BSTAR": -0.0097509764, "MEAN_MOTION_DOT": -0.01453653, "MEAN_MOTION_DDOT": 0}, "tle": {"line1": "1 66968U 25288K   25355.58335648 -.01453653  00000+0 -97510-2 0  9994", "line2": "2 66968  43.0006 112.9986 0001496 282.2203 124.8430 15.77155765  3256"}}, "geometry": {"type": "Point", "coordinates": [-108.20452095243924, 30.89831516911362]}}]}